YAM-7                   
1 60504U 24149AN  26068.71799904  .00009009  00000+0  30984-3 0  9997
2 60504  97.3828 149.4631 0001973 296.5121  63.5918 15.30304554 86835
STARLINK-32947          
1 63121U 25039T   26068.17335632  .00035426  00000+0  12927-2 0  9996
2 63121  43.0049  15.1957 0001372 260.7076  99.3620 15.27528698 57996
